ONEWEB-0151             
1 48066U 21025AA  26078.25907398  .00000200  00000+0  51249-3 0  9995
2 48066  87.9029 338.1160 0001866  80.9071 279.2269 13.13469986241788
ONEWEB-0170             
1 48067U 21025AB  26078.26752638 -.00000002  00000+0 -41331-4 0  9996
2 48067  87.9030 338.1159 0001877  92.7633 267.3711 13.13470492241746
ONEWEB-0168             
1 48068U 21025AC  26078.25229158  .00000399  00000+0  10563-2 0  9990
2 48068  87.9036 338.1109 0001843  73.2348 286.8983 13.13471000241752
ONEWEB-0173             
1 48069U 21025AD  26078.24383331  .00000386  00000+0  10218-2 0  9997
2 48069  87.9033 338.1191 0002133  75.7481 284.3885 13.13471516241991
ONEWEB-0171             
1 48070U 21025AE  26078.20488605 -.00000250  00000+0 -72020-3 0  9997
2 48070  87.9025 338.1383 0001823  81.3741 278.7595 13.13470083241807
ONEWEB-0172             
1 48071U 21025AF  26078.26075896  .00000170  00000+0  43194-3 0  9997
2 48071  87.9028 338.1148 0001917  79.4462 280.6883 13.13470528242708
ONEWEB-0174             
1 48072U 21025AG  26078.24214148  .00000373  00000+0  98696-3 0  9993
2 48072  87.9023 338.1195 0001704  73.2426 286.8890 13.13471152242027
ONEWEB-0175             
1 48073U 21025AH  26078.27261054 -.00000116  00000+0 -35224-3 0  9990
2 48073  87.9034 338.0902 0001985  86.5067 273.6289 13.13470264241684
ONEWEB-0177             
1 48074U 21025AJ  26078.20827257 -.00000288  00000+0 -82218-3 0  9992
2 48074  87.9035 338.1236 0001850  72.7267 287.4064 13.13471298241869
ONEWEB-0178             
1 48075U 21025AK  26078.22703950  .00000084  00000+0  19420-3 0  9995
2 48075  87.9015 338.1457 0002015  80.9815 279.1543 13.13471771241919
ONEWEB-0108             
1 48076U 21025AL  26078.26244897  .00000135  00000+0  33479-3 0  9997
2 48076  87.9035 338.1014 0001513  78.3776 281.7523 13.13470466241849
ONEWEB-0169             
1 48077U 21025AM  26078.21843101 -.00000093  00000+0 -28890-3 0  9992
2 48077  87.9028 338.1253 0001526  77.4756 282.6544 13.13471407240498
ONEWEB-0176             
1 48210U 21031A   26078.13165124 -.00000135  00000+0 -39942-3 0  9998
2 48210  87.8972 307.6728 0001768  83.2677 276.8654 13.14503447236489
ONEWEB-0184             
1 48211U 21031B   26078.18080485  .00000048  00000+0  95596-4 0  9999
2 48211  87.8982 307.6548 0002472  93.2704 266.8709 13.14503277236465
ONEWEB-0179             
1 48212U 21031C   26078.06587585  .00387421  00000+0  92830+0 0  9996
2 48212  87.8972 307.6740 0001224  47.8084 312.3152 13.20074377236492
ONEWEB-0180             
1 48213U 21031D   26078.18397777  .00000008  00000+0 -13076-4 0  9996
2 48213  87.8974 307.6567 0001912  77.2476 282.8867 13.14503606236396
