[{"OBJECT_NAME":"ONEWEB-0151","OBJECT_ID":"2021-025AA","EPOCH":"2026-03-19T06:13:03.991872","MEAN_MOTION":13.13469986,"ECCENTRICITY":0.00018669,"INCLINATION":87.9029,"RA_OF_ASC_NODE":338.116,"ARG_OF_PERICENTER":80.9071,"MEAN_ANOMALY":279.2269,"EPHEMERIS_TYPE":0,"CLASSIFICATION_TYPE":"U","NORAD_CAT_ID":48066,"ELEMENT_SET_NO":999,"REV_AT_EPOCH":24178,"BSTAR":0.00051249034,"MEAN_MOTION_DOT":2.0e-6,"MEAN_MOTION_DDOT":0},{"OBJECT_NAME":"ONEWEB-0170","OBJECT_ID":"2021-025AB","EPOCH":"2026-03-19T06:25:14.279232","MEAN_MOTION":13.13470492,"ECCENTRICITY":0.0001877,"INCLINATION":87.903,"RA_OF_ASC_NODE":338.1159,"ARG_OF_PERICENTER":92.7633,"MEAN_ANOMALY":267.3711,"EPHEMERIS_TYPE":0,"CLASSIFICATION_TYPE":"U","NORAD_CAT_ID":48067,"ELEMENT_SET_NO":999,"REV_AT_EPOCH":24174,"BSTAR":-4.1330753e-5,"MEAN_MOTION_DOT":-2.0e-8,"MEAN_MOTION_DDOT":0},{"OBJECT_NAME":"ONEWEB-0168","OBJECT_ID":"2021-025AC","EPOCH":"2026-03-19T06:03:17.992512","MEAN_MOTION":13.13471,"ECCENTRICITY":0.00018432,"INCLINATION":87.9036,"RA_OF_ASC_NODE":338.1109,"ARG_OF_PERICENTER":73.2348,"MEAN_ANOMALY":286.8983,"EPHEMERIS_TYPE":0,"CLASSIFICATION_TYPE":"U","NORAD_CAT_ID":48068,"ELEMENT_SET_NO":999,"REV_AT_EPOCH":24175,"BSTAR":0.001056335,"MEAN_MOTION_DOT":3.99e-6,"MEAN_MOTION_DDOT":0},{"OBJECT_NAME":"ONEWEB-0173","OBJECT_ID":"2021-025AD","EPOCH":"2026-03-19T05:51:07.197984","MEAN_MOTION":13.13471516,"ECCENTRICITY":0.00021334,"INCLINATION":87.9033,"RA_OF_ASC_NODE":338.1191,"ARG_OF_PERICENTER":75.7481,"MEAN_ANOMALY":284.3885,"EPHEMERIS_TYPE":0,"CLASSIFICATION_TYPE":"U","NORAD_CAT_ID":48069,"ELEMENT_SET_NO":999,"REV_AT_EPOCH":24199,"BSTAR":0.0010217774,"MEAN_MOTION_DOT":3.86e-6,"MEAN_MOTION_DDOT":0},{"OBJECT_NAME":"ONEWEB-0171","OBJECT_ID":"2021-025AE","EPOCH":"2026-03-19T04:55:02.154720","MEAN_MOTION":13.13470083,"ECCENTRICITY":0.00018235,"INCLINATION":87.9025,"RA_OF_ASC_NODE":338.1383,"ARG_OF_PERICENTER":81.3741,"MEAN_ANOMALY":278.7595,"EPHEMERIS_TYPE":0,"CLASSIFICATION_TYPE":"U","NORAD_CAT_ID":48070,"ELEMENT_SET_NO":999,"REV_AT_EPOCH":24180,"BSTAR":-0.00072020203,"MEAN_MOTION_DOT":-2.5e-6,"MEAN_MOTION_DDOT":0},{"OBJECT_NAME":"ONEWEB-0172","OBJECT_ID":"2021-025AF","EPOCH":"2026-03-19T06:15:29.574144","MEAN_MOTION":13.13470528,"ECCENTRICITY":0.00019179,"INCLINATION":87.9028,"RA_OF_ASC_NODE":338.1148,"ARG_OF_PERICENTER":79.4462,"MEAN_ANOMALY":280.6883,"EPHEMERIS_TYPE":0,"CLASSIFICATION_TYPE":"U","NORAD_CAT_ID":48071,"ELEMENT_SET_NO":999,"REV_AT_EPOCH":24270,"BSTAR":0.00043194223,"MEAN_MOTION_DOT":1.7e-6,"MEAN_MOTION_DDOT":0},{"OBJECT_NAME":"ONEWEB-0174","OBJECT_ID":"2021-025AG","EPOCH":"2026-03-19T05:48:41.023872","MEAN_MOTION":13.13471152,"ECCENTRICITY":0.00017041,"INCLINATION":87.9023,"RA_OF_ASC_NODE":338.1195,"ARG_OF_PERICENTER":73.2426,"MEAN_ANOMALY":286.889,"EPHEMERIS_TYPE":0,"CLASSIFICATION_TYPE":"U","NORAD_CAT_ID":48072,"ELEMENT_SET_NO":999,"REV_AT_EPOCH":24202,"BSTAR":0.00098695764,"MEAN_MOTION_DOT":3.73e-6,"MEAN_MOTION_DDOT":0},{"OBJECT_NAME":"ONEWEB-0175","OBJECT_ID":"2021-025AH","EPOCH":"2026-03-19T06:32:33.550656","MEAN_MOTION":13.13470264,"ECCENTRICITY":0.00019859,"INCLINATION":87.9034,"RA_OF_ASC_NODE":338.0902,"ARG_OF_PERICENTER":86.5067,"MEAN_ANOMALY":273.6289,"EPHEMERIS_TYPE":0,"CLASSIFICATION_TYPE":"U","NORAD_CAT_ID":48073,"ELEMENT_SET_NO":999,"REV_AT_EPOCH":24168,"BSTAR":-0.00035223937,"MEAN_MOTION_DOT":-1.16e-6,"MEAN_MOTION_DDOT":0},{"OBJECT_NAME":"ONEWEB-0177","OBJECT_ID":"2021-025AJ","EPOCH":"2026-03-19T04:59:54.750048","MEAN_MOTION":13.13471298,"ECCENTRICITY":0.00018502,"INCLINATION":87.9035,"RA_OF_ASC_NODE":338.1236,"ARG_OF_PERICENTER":72.7267,"MEAN_ANOMALY":287.4064,"EPHEMERIS_TYPE":0,"CLASSIFICATION_TYPE":"U","NORAD_CAT_ID":48074,"ELEMENT_SET_NO":999,"REV_AT_EPOCH":24186,"BSTAR":-0.00082218461,"MEAN_MOTION_DOT":-2.88e-6,"MEAN_MOTION_DDOT":0},{"OBJECT_NAME":"ONEWEB-0178","OBJECT_ID":"2021-025AK","EPOCH":"2026-03-19T05:26:56.212800","MEAN_MOTION":13.13471771,"ECCENTRICITY":0.00020158,"INCLINATION":87.9015,"RA_OF_ASC_NODE":338.1457,"ARG_OF_PERICENTER":80.9815,"MEAN_ANOMALY":279.1543,"EPHEMERIS_TYPE":0,"CLASSIFICATION_TYPE":"U","NORAD_CAT_ID":48075,"ELEMENT_SET_NO":999,"REV_AT_EPOCH":24191,"BSTAR":0.00019419951,"MEAN_MOTION_DOT":8.4e-7,"MEAN_MOTION_DDOT":0},{"OBJECT_NAME":"ONEWEB-0108","OBJECT_ID":"2021-025AL","EPOCH":"2026-03-19T06:17:55.591008","MEAN_MOTION":13.13470466,"ECCENTRICITY":0.00015132,"INCLINATION":87.9035,"RA_OF_ASC_NODE":338.1014,"ARG_OF_PERICENTER":78.3776,"MEAN_ANOMALY":281.7523,"EPHEMERIS_TYPE":0,"CLASSIFICATION_TYPE":"U","NORAD_CAT_ID":48076,"ELEMENT_SET_NO":999,"REV_AT_EPOCH":24184,"BSTAR":0.00033479005,"MEAN_MOTION_DOT":1.35e-6,"MEAN_MOTION_DDOT":0},{"OBJECT_NAME":"ONEWEB-0169","OBJECT_ID":"2021-025AM","EPOCH":"2026-03-19T05:14:32.439264","MEAN_MOTION":13.13471407,"ECCENTRICITY":0.00015265,"INCLINATION":87.9028,"RA_OF_ASC_NODE":338.1253,"ARG_OF_PERICENTER":77.4756,"MEAN_ANOMALY":282.6544,"EPHEMERIS_TYPE":0,"CLASSIFICATION_TYPE":"U","NORAD_CAT_ID":48077,"ELEMENT_SET_NO":999,"REV_AT_EPOCH":24049,"BSTAR":-0.00028889578,"MEAN_MOTION_DOT":-9.3e-7,"MEAN_MOTION_DDOT":0},{"OBJECT_NAME":"ONEWEB-0176","OBJECT_ID":"2021-031A","EPOCH":"2026-03-19T03:09:34.667136","MEAN_MOTION":13.14503447,"ECCENTRICITY":0.00017681,"INCLINATION":87.8972,"RA_OF_ASC_NODE":307.6728,"ARG_OF_PERICENTER":83.2677,"MEAN_ANOMALY":276.8654,"EPHEMERIS_TYPE":0,"CLASSIFICATION_TYPE":"U","NORAD_CAT_ID":48210,"ELEMENT_SET_NO":999,"REV_AT_EPOCH":23648,"BSTAR":-0.00039941937,"MEAN_MOTION_DOT":-1.35e-6,"MEAN_MOTION_DDOT":0},{"OBJECT_NAME":"ONEWEB-0184","OBJECT_ID":"2021-031B","EPOCH":"2026-03-19T04:20:21.539040","MEAN_MOTION":13.14503277,"ECCENTRICITY":0.00024721,"INCLINATION":87.8982,"RA_OF_ASC_NODE":307.6548,"ARG_OF_PERICENTER":93.2704,"MEAN_ANOMALY":266.8709,"EPHEMERIS_TYPE":0,"CLASSIFICATION_TYPE":"U","NORAD_CAT_ID":48211,"ELEMENT_SET_NO":999,"REV_AT_EPOCH":23646,"BSTAR":9.5596342e-5,"MEAN_MOTION_DOT":4.8e-7,"MEAN_MOTION_DDOT":0},{"OBJECT_NAME":"ONEWEB-0179","OBJECT_ID":"2021-031C","EPOCH":"2026-03-19T01:34:51.673440","MEAN_MOTION":13.20074377,"ECCENTRICITY":0.00012245,"INCLINATION":87.8972,"RA_OF_ASC_NODE":307.674,"ARG_OF_PERICENTER":47.8084,"MEAN_ANOMALY":312.3152,"EPHEMERIS_TYPE":0,"CLASSIFICATION_TYPE":"U","NORAD_CAT_ID":48212,"ELEMENT_SET_NO":999,"REV_AT_EPOCH":23649,"BSTAR":0.92830239,"MEAN_MOTION_DOT":0.00387421,"MEAN_MOTION_DDOT":0},{"OBJECT_NAME":"ONEWEB-0180","OBJECT_ID":"2021-031D","EPOCH":"2026-03-19T04:24:55.679328","MEAN_MOTION":13.14503606,"ECCENTRICITY":0.00019128,"INCLINATION":87.8974,"RA_OF_ASC_NODE":307.6567,"ARG_OF_PERICENTER":77.2476,"MEAN_ANOMALY":282.8867,"EPHEMERIS_TYPE":0,"CLASSIFICATION_TYPE":"U","NORAD_CAT_ID":48213,"ELEMENT_SET_NO":999,"REV_AT_EPOCH":23639,"BSTAR":-1.3075959e-5,"MEAN_MOTION_DOT":8.0e-8,"MEAN_MOTION_DDOT":0}]
